OBJECT_NAME,OBJECT_ID,EPOCH,MEAN_MOTION,ECCENTRICITY,INCLINATION,RA_OF_ASC_NODE,ARG_OF_PERICENTER,MEAN_ANOMALY,EPHEMERIS_TYPE,CLASSIFICATION_TYPE,NORAD_CAT_ID,ELEMENT_SET_NO,REV_AT_EPOCH,BSTAR,MEAN_MOTION_DOT,MEAN_MOTION_DDOT
IRIDIUM 135,2017-083A,2026-06-11T12:00:27.180576,14.34217679,.00021666,86.3962,324.3936,91.4209,268.7235,0,U,43070,999,44333,.1823781E-5,.25E-6,0
IRIDIUM 138,2017-083B,2026-06-11T12:36:59.208192,14.34218167,.00023832,86.3977,324.0777,87.7808,272.3661,0,U,43071,999,44332,.33063574E-4,.112E-5,0
IRIDIUM 116,2017-083C,2026-06-11T11:51:19.164384,14.34217568,.00018834,86.3959,324.3822,95.3681,264.7730,0,U,43072,999,44335,.9001236E-5,.45E-6,0
IRIDIUM 130,2017-083D,2026-06-11T11:05:39.085152,14.34217257,.00018376,86.3965,324.6703,89.0856,271.0550,0,U,43073,999,44329,-.40442794E-4,-.93E-6,0
IRIDIUM 151,2017-083E,2026-06-11T12:09:35.176032,14.34217635,.00021275,86.3962,324.4347,92.5204,267.6235,0,U,43074,999,44332,.5662796E-5,.36E-6,0
IRIDIUM 134,2017-083F,2026-06-11T13:04:23.157408,14.34217577,.00019713,86.3959,324.4266,89.5730,270.5692,0,U,43075,999,44329,-.5031993E-5,.6E-7,0
IRIDIUM 137,2017-083G,2026-06-11T11:42:11.174976,14.34217573,.00020838,86.3964,324.5431,103.3994,256.7434,0,U,43076,999,44335,.7838325E-5,.42E-6,0
IRIDIUM 141,2017-083H,2026-06-11T11:33:03.170016,14.34217947,.00022097,86.3959,324.3768,90.7535,269.3914,0,U,43077,999,44335,.1675982E-4,.67E-6,0
IRIDIUM 153,2017-083J,2026-06-11T15:25:35.436864,14.34217586,.00021803,86.3955,292.7895,90.4152,269.7293,0,U,43078,999,44448,-.821697E-6,.17E-6,0
IRIDIUM 131,2017-083K,2026-06-11T12:55:15.191328,14.34217340,.00020824,86.3963,324.5387,91.7581,268.3853,0,U,43079,999,44329,-.7007488E-5,0,0
IRIDIUM 144,2018-030A,2026-06-11T15:34:43.396032,14.34217691,.00020612,86.3955,292.7158,95.7130,264.4301,0,U,43249,999,42934,.7072039E-5,.4E-6,0
IRIDIUM 149,2018-030B,2026-06-11T15:43:51.399264,14.34217872,.00022387,86.3954,292.6804,93.3371,266.8081,0,U,43250,999,42936,.3076317E-5,.28E-6,0
IRIDIUM 157,2018-030C,2026-06-11T14:30:47.427840,14.34217526,.00020788,86.3953,292.7547,94.1178,266.0255,0,U,43251,999,42933,-.3668696E-5,.1E-6,0
IRIDIUM 140,2018-030D,2026-06-11T09:56:47.391360,14.34217602,.00020088,86.3954,292.8470,92.9536,267.1889,0,U,43252,999,42936,-.1046009E-5,.17E-6,0
IRIDIUM 145,2018-030E,2026-06-11T14:39:55.322208,14.34217769,.00018947,86.3955,292.7368,98.7640,261.3771,0,U,43253,999,42932,.80344348E-4,.245E-5,0
IRIDIUM 146,2018-030F,2026-06-11T14:12:31.406688,14.34217654,.00020888,86.3956,292.7570,95.9032,264.2402,0,U,43254,999,42933,-.746828E-6,.18E-6,0
IRIDIUM 148,2018-030G,2026-06-11T15:07:19.452000,14.34217203,.00020909,86.3955,292.7843,97.2150,262.9283,0,U,43255,999,42937,-.8634698E-5,-.4E-7,0
IRIDIUM 142,2018-030H,2026-06-11T14:21:39.352896,14.34217011,.00020186,86.3953,292.6865,96.9179,263.2246,0,U,43256,999,42933,.45167433E-4,.146E-5,0
IRIDIUM 150,2018-030J,2026-06-11T15:16:27.399936,14.34217534,.0002017,86.3953,292.7869,93.1251,267.0175,0,U,43257,999,42936,-.4744125E-5,.6E-7,0
IRIDIUM 143,2018-030K,2026-06-11T14:49:03.395424,14.34218134,.0002062,86.3958,292.8871,95.1689,264.9742,0,U,43258,999,42929,.66545864E-4,.206E-5,0
IRIDIUM 161,2018-047C,2026-06-11T13:16:36.465312,14.43279844,.00025558,86.4482,90.8267,86.7276,273.4217,0,U,43478,999,42432,.75187144E-4,.273E-5,0
IRIDIUM 152,2018-047D,2026-06-11T07:27:54.309600,14.34217379,.00022468,86.3957,90.7889,83.5993,276.5459,0,U,43479,999,42164,-.980228E-5,-.8E-7,0
IRIDIUM 147,2018-047E,2026-06-11T07:37:02.248896,14.34217761,.00021603,86.3959,90.7913,84.9428,275.2015,0,U,43480,999,42164,.10550835E-4,.49E-6,0
IRIDIUM 110,2018-047F,2026-06-11T12:47:34.332864,14.34217716,.00025965,86.3961,90.7930,84.9448,275.2044,0,U,43481,999,42166,-.624145E-6,.18E-6,0
IRIDIUM 162,2018-047G,2026-06-11T13:07:32.594592,14.43278492,.00023271,86.4480,90.7204,83.0053,277.1413,0,U,43482,999,42431,.74600447E-4,.271E-5,0
IRIDIUM 160,2018-061A,2026-06-11T14:50:30.526368,14.34217334,.00021794,86.3962,59.1256,85.6718,274.4727,0,U,43569,999,41257,-.10891928E-4,-.11E-6,0
IRIDIUM 166,2018-061B,2026-06-11T10:25:38.485344,14.34217892,.00021317,86.3967,59.1531,86.3489,273.7951,0,U,43570,999,41257,.66087776E-4,.205E-5,0
IRIDIUM 158,2018-061C,2026-06-11T11:20:26.471040,14.34217718,.00022465,86.3965,59.1474,82.2168,277.9283,0,U,43571,999,41254,.18249127E-4,.71E-6,0
IRIDIUM 165,2018-061D,2026-06-11T10:16:30.262656,14.34216853,.00020891,86.3969,59.2122,85.7877,274.3558,0,U,43572,999,41256,.37953774E-4,.126E-5,0
IRIDIUM 155,2018-061E,2026-06-11T11:02:10.452480,14.34217710,.00021513,86.3963,59.0681,82.4579,277.6861,0,U,43573,999,41253,-.1113767E-5,.17E-6,0
